NORAD_CAT_ID,OBJECT_NAME,OBJECT_TYPE,EPOCH,MEAN_MOTION,ECCENTRICITY,INCLINATION,RA_OF_ASC_NODE,ARG_OF_PERICENTER,MEAN_ANOMALY,BSTAR,MEAN_MOTION_DOT,MEAN_MOTION_DDOT,TLE_LINE0,TLE_LINE1,TLE_LINE2,SEMIMAJOR_AXIS,PERIOD,APOGEE,PERIGEE,DECAYED
53181.0,STARLINK-4273,PAYLOAD,2024-07-15 15:00:04,15.09655547,4.74e-05,53.2189,306.5573,48.3993,311.704,3.9699e-05,3.56e-06,0.0,0 STARLINK-4273,1 53181U 22083BB  24197.62504899  .00000356  00000-0  39699-4 0  9993,2 53181  53.2189 306.5573 0000474  48.3993 311.7040 15.09655547111026,6915.389,95.386,537.581,536.926,0.0
53181.0,STARLINK-4273,PAYLOAD,2024-07-16 00:32:03,15.09662491,4.81e-05,53.2189,304.7718,38.7502,321.3525,5.4525e-05,5.98e-06,0.0,0 STARLINK-4273,1 53181U 22083BB  24198.02226783  .00000598  00000-0  54525-4 0  9994,2 53181  53.2189 304.7718 0000481  38.7502 321.3525 15.09662491111722,6915.368,95.386,537.565,536.9,0.0
53181.0,STARLINK-4273,PAYLOAD,2024-07-16 13:14:44,15.0966104,6.89e-05,53.2194,302.3913,40.6856,319.4187,6.3822e-05,7.49e-06,0.0,0 STARLINK-4273,1 53181U 22083BB  24198.55190138  .00000749  00000-0  63822-4 0  9994,2 53181  53.2194 302.3913 0000689  40.6856 319.4187 15.09661040111162,6915.372,95.386,537.713,536.76,0.0
53181.0,STARLINK-4273,PAYLOAD,2024-07-17 13:04:44,15.09662416,5.2e-05,53.2167,297.9258,38.4279,321.675,7.362e-05,9.09e-06,0.0,0 STARLINK-4273,1 53181U 22083BB  24199.54495899  .00000909  00000-0  73620-4 0  9991,2 53181  53.2167 297.9258 0000520  38.4279 321.6750 15.09662416111957,6915.368,95.386,537.592,536.873,0.0
53181.0,STARLINK-4273,PAYLOAD,2024-07-18 00:12:05,15.09657036,5.2e-05,53.2176,295.8433,61.2192,298.8853,5.2745e-06,-2.04e-06,0.0,0 STARLINK-4273,1 53181U 22083BB  24200.00839203 -.00000204  00000-0  52745-5 0  9991,2 53181  53.2176 295.8433 0000520  61.2192 298.8853 15.09657036112027,6915.384,95.386,537.609,536.89,0.0
53181.0,STARLINK-4273,PAYLOAD,2024-07-18 12:54:45,15.09655051,7e-05,53.2182,293.4616,84.2876,275.8196,-5.7587e-05,-1.227e-05,0.0,0 STARLINK-4273,1 53181U 22083BB  24200.53802915 -.00001227  00000-0 -57587-4 0  9994,2 53181  53.2182 293.4616 0000700  84.2876 275.8196 15.09655051111462,6915.39,95.386,537.739,536.771,0.0
53181.0,STARLINK-4273,PAYLOAD,2024-07-19 12:44:46,15.09655792,8.89e-05,53.2172,289.0031,45.8608,314.2458,2.1273e-05,5.6e-07,0.0,0 STARLINK-4273,1 53181U 22083BB  24201.53108867  .00000056  00000-0  21273-4 0  9990,2 53181  53.2172 289.0031 0000889  45.8608 314.2458 15.09655792112256,6915.388,95.386,537.868,536.638,0.0
53181.0,STARLINK-4273,PAYLOAD,2024-07-19 22:16:45,15.09669367,7.71e-05,53.217,287.2173,50.7662,309.3399,-0.00011341,-2.136e-05,0.0,0 STARLINK-4273,1 53181U 22083BB  24201.92830797 -.00002136  00000-0 -11341-3 0  9994,2 53181  53.2170 287.2173 0000771  50.7662 309.3399 15.09669367111673,6915.347,95.385,537.745,536.678,0.0
53181.0,STARLINK-4273,PAYLOAD,2024-07-20 12:34:41,15.09716461,9.14e-05,53.2174,284.5333,56.6229,303.4851,0.00056122,8.871e-05,0.0,0 STARLINK-4273,1 53181U 22083BB  24202.52408755  .00008871  00000-0  56122-3 0  9992,2 53181  53.2174 284.5333 0000914  56.6229 303.4851 15.09716461112406,6915.203,95.382,537.7,536.436,0.0
53181.0,STARLINK-4273,PAYLOAD,2024-07-20 22:06:36,15.09757531,8.53e-05,53.2178,282.7482,57.9214,302.1861,0.00079873,0.00012769,0.0,0 STARLINK-4273,1 53181U 22083BB  24202.92125902  .00012769  00000-0  79873-3 0  9995,2 53181  53.2178 282.7482 0000853  57.9214 302.1861 15.09757531111820,6915.077,95.38,537.532,536.352,0.0
53181.0,STARLINK-4273,PAYLOAD,2024-07-21 10:49:03,15.09887286,0.0001216,53.2174,280.3656,28.8323,331.2737,0.0016645,0.00027077,0.0,0 STARLINK-4273,1 53181U 22083BB  24203.45073602  .00027077  00000-0  16645-2 0  9998,2 53181  53.2174 280.3656 0001216  28.8323 331.2737 15.09887286112541,6914.681,95.371,537.387,535.705,0.0
53181.0,STARLINK-4273,PAYLOAD,2024-07-22 09:03:20,15.10021154,0.0002698,53.2175,276.1981,9.9621,350.1424,0.0018601,0.00030421,0.0,0 STARLINK-4273,1 53181U 22083BB  24204.37732321  .00030421  00000-0  18601-2 0  9991,2 53181  53.2175 276.1981 0002698   9.9621 350.1424 15.10021154112686,6914.272,95.363,538.003,534.272,0.0
53181.0,STARLINK-4273,PAYLOAD,2024-07-22 13:49:10,15.10113745,0.0001098,53.2173,275.303,122.1335,237.9764,0.0021121,0.0003469,0.0,0 STARLINK-4273,1 53181U 22083BB  24204.57582162  .00034690  00000-0  21121-2 0  9992,2 53181  53.2173 275.3030 0001098 122.1335 237.9764 15.10113745112073,6913.99,95.357,536.614,535.096,0.0
53181.0,STARLINK-4273,PAYLOAD,2024-07-22 15:24:29,15.10111081,0.0001535,53.217,275.0074,29.7225,330.3855,0.0021438,0.00035215,0.0,0 STARLINK-4273,1 53181U 22083BB  24204.64200810  .00035215  00000-0  21438-2 0  9992,2 53181  53.2170 275.0074 0001535  29.7225 330.3855 15.10111081112723,6913.998,95.357,536.924,534.802,0.0
53181.0,STARLINK-4273,PAYLOAD,2024-07-23 10:28:00,15.10271984,0.0001431,53.2185,271.4382,29.391,330.7163,0.0013225,0.00021668,0.0,0 STARLINK-4273,1 53181U 22083BB  24205.43611368  .00021668  00000-0  13225-2 0  9996,2 53181  53.2185 271.4382 0001431  29.3910 330.7163 15.10271984112841,6913.507,95.347,536.361,534.383,0.0
53181.0,STARLINK-4273,PAYLOAD,2024-07-23 13:38:34,15.10289649,0.0001312,53.2178,270.8358,21.0499,339.0547,0.001389,0.00022787,0.0,0 STARLINK-4273,1 53181U 22083BB  24205.56845411  .00022787  00000-0  13890-2 0  9999,2 53181  53.2178 270.8358 0001312  21.0499 339.0547 15.10289649112225,6913.453,95.346,536.225,534.411,0.0
53181.0,STARLINK-4273,PAYLOAD,2024-07-24 03:56:08,15.10389562,0.0001351,53.2176,268.1584,19.0279,341.0764,0.00056432,9.092e-05,0.0,0 STARLINK-4273,1 53181U 22083BB  24206.16399212  .00009092  00000-0  56432-3 0  9993,2 53181  53.2176 268.1584 0001351  19.0279 341.0764 15.10389562112959,6913.148,95.34,535.947,534.079,0.0
53181.0,STARLINK-4273,PAYLOAD,2024-07-24 10:17:17,15.10401534,0.0002336,53.2176,266.9756,21.6216,338.4875,0.00060476,9.769e-05,0.0,0 STARLINK-4273,1 53181U 22083BB  24206.42867254  .00009769  00000-0  60476-3 0  9992,2 53181  53.2176 266.9756 0002336  21.6216 338.4875 15.10401534112991,6913.112,95.339,536.591,533.362,0.0
53181.0,STARLINK-4273,PAYLOAD,2024-07-25 11:41:44,15.10498434,0.0001413,53.2175,262.2001,27.5418,332.5649,0.00061204,9.917e-05,0.0,0 STARLINK-4273,1 53181U 22083BB  24207.48732203  .00009917  00000-0  61204-3 0  9999,2 53181  53.2175 262.2001 0001413  27.5418 332.5649 15.10498434113154,6912.816,95.333,535.658,533.704,0.0
53181.0,STARLINK-4273,PAYLOAD,2024-07-25 13:17:01,15.10498432,0.0001343,53.2174,261.9013,30.465,329.642,0.00059446,9.623e-05,0.0,0 STARLINK-4273,1 53181U 22083BB  24207.55348978  .00009623  00000-0  59446-3 0  9998,2 53181  53.2174 261.9013 0001343  30.4650 329.6420 15.10498432112527,6912.816,95.333,535.609,533.752,0.0
53181.0,STARLINK-4273,PAYLOAD,2024-07-26 11:30:51,15.10568211,0.0001418,53.2183,257.7336,43.2192,316.8912,0.00057606,9.334e-05,0.0,0 STARLINK-4273,1 53181U 22083BB  24208.47976819  .00009334  00000-0  57606-3 0  9996,2 53181  53.2183 257.7336 0001418  43.2192 316.8912 15.10568211113308,6912.603,95.328,535.448,533.488,0.0
53181.0,STARLINK-4273,PAYLOAD,2024-07-26 13:06:08,15.10575563,0.0001351,53.2177,257.4337,32.7955,327.3121,0.00057086,9.249e-05,0.0,0 STARLINK-4273,1 53181U 22083BB  24208.54592680  .00009249  00000-0  57086-3 0  9991,2 53181  53.2177 257.4337 0001351  32.7955 327.3121 15.10575563112671,6912.581,95.328,535.379,533.512,0.0
53181.0,STARLINK-4273,PAYLOAD,2024-07-27 06:34:06,15.10634587,0.0002235,53.2171,254.1647,21.6617,338.4471,0.00050415,8.146e-05,0.0,0 STARLINK-4273,1 53181U 22083BB  24209.27368363  .00008146  00000-0  50415-3 0  9995,2 53181  53.2171 254.1647 0002235  21.6617 338.4471 15.10634587112782,6912.4,95.324,535.81,532.721,0.0
53181.0,STARLINK-4273,PAYLOAD,2024-07-27 09:44:37,15.10654079,0.000211,53.217,253.5688,22.4772,337.6313,0.00064285,0.00010477,0.0,0 STARLINK-4273,1 53181U 22083BB  24209.40599032  .00010477  00000-0  64285-3 0  9999,2 53181  53.2170 253.5688 0002110  22.4772 337.6313 15.10654079113440,6912.341,95.323,535.665,532.748,0.0
53181.0,STARLINK-4273,PAYLOAD,2024-07-27 11:19:53,15.10653815,0.000208,53.2168,253.2674,25.7405,334.3691,0.00066381,0.00010829,0.0,0 STARLINK-4273,1 53181U 22083BB  24209.47214942  .00010829  00000-0  66381-3 0  9990,2 53181  53.2168 253.2674 0002080  25.7405 334.3691 15.10653815112814,6912.342,95.323,535.645,532.769,0.0
53181.0,STARLINK-4273,PAYLOAD,2024-07-28 09:33:36,15.10724919,0.0002208,53.2177,249.0961,32.5929,327.52,0.00073889,0.00012113,0.0,0 STARLINK-4273,1 53181U 22083BB  24210.39833522  .00012113  00000-0  73889-3 0  9993,2 53181  53.2177 249.0961 0002208  32.5929 327.5200 15.10724919113595,6912.125,95.318,535.516,532.464,0.0
53181.0,STARLINK-4273,PAYLOAD,2024-07-29 09:22:30,15.10802478,0.0002265,53.2157,244.6325,24.7705,335.3396,0.00054222,8.826e-05,0.0,0 STARLINK-4273,1 53181U 22083BB  24211.39063157  .00008826  00000-0  54222-3 0  9999,2 53181  53.2157 244.6325 0002265  24.7705 335.3396 15.10802478113743,6911.888,95.314,535.319,532.188,0.0
53181.0,STARLINK-4273,PAYLOAD,2024-07-29 18:54:03,15.10825955,0.0002285,53.2174,242.8455,34.5278,325.5863,0.00063516,0.00010399,0.0,0 STARLINK-4273,1 53181U 22083BB  24211.78753942  .00010399  00000-0  63516-3 0  9994,2 53181  53.2174 242.8455 0002285  34.5278 325.5863 15.10825955113804,6911.817,95.312,535.261,532.102,0.0
53181.0,STARLINK-4273,PAYLOAD,2024-07-30 09:11:21,15.10871767,0.0002364,53.2153,240.1614,27.3064,332.8053,0.00063164,0.00010353,0.0,0 STARLINK-4273,1 53181U 22083BB  24212.38288458  .00010353  00000-0  63164-3 0  9995,2 53181  53.2153 240.1614 0002364  27.3064 332.8053 15.10871767113893,6911.677,95.309,535.176,531.908,0.0
53181.0,STARLINK-4273,PAYLOAD,2024-07-30 18:42:51,15.1090073,0.0002613,53.2161,238.3703,26.6935,333.4192,0.00073284,0.00012071,0.0,0 STARLINK-4273,1 53181U 22083BB  24212.77976819  .00012071  00000-0  73284-3 0  9996,2 53181  53.2161 238.3703 0002613  26.6935 333.4192 15.10900730113957,6911.589,95.307,535.26,531.648,0.0
